OBJECT_NAME,OBJECT_ID,EPOCH,MEAN_MOTION,ECCENTRICITY,INCLINATION,RA_OF_ASC_NODE,ARG_OF_PERICENTER,MEAN_ANOMALY,EPHEMERIS_TYPE,CLASSIFICATION_TYPE,NORAD_CAT_ID,ELEMENT_SET_NO,REV_AT_EPOCH,BSTAR,MEAN_MOTION_DOT,MEAN_MOTION_DDOT
IRIDIUM 135,2017-083A,2026-07-09T14:48:31.254624,14.34217088,.0002177,86.3981,312.6386,93.6379,266.5066,0,U,43070,999,44736,.65905E-5,.38E-6,0
IRIDIUM 138,2017-083B,2026-07-08T20:59:55.171968,14.34216935,.00020705,86.3995,312.6476,91.1830,268.9603,0,U,43071,999,44724,.40221664E-4,.132E-5,0
IRIDIUM 116,2017-083C,2026-07-09T18:00:18.735840,14.34219889,.0002386,86.3982,312.5688,99.5500,260.5966,0,U,43072,999,44740,.53059E-4,.168E-5,0
IRIDIUM 130,2017-083D,2026-07-09T07:11:51.243360,14.34216445,.0002124,86.3990,313.0346,100.8223,259.3212,0,U,43073,999,44728,.50979736E-4,.163E-5,0
IRIDIUM 151,2017-083E,2026-07-09T14:57:39.173184,14.34216802,.0002209,86.3984,312.6799,95.3542,264.7905,0,U,43074,999,44735,.65618E-4,.204E-5,0
IRIDIUM 134,2017-083F,2026-07-08T21:27:19.182528,14.34216913,.00020672,86.3983,312.9933,95.5365,264.6067,0,U,43075,999,44721,-.34865062E-4,-.78E-6,0
IRIDIUM 137,2017-083G,2026-07-09T17:51:11.337408,14.34217284,.0002641,86.3986,312.7313,95.7524,264.3973,0,U,43076,999,44740,.49901E-4,.16E-5,0
IRIDIUM 141,2017-083H,2026-07-09T07:39:15.031008,14.34218254,.00021905,86.3981,312.7381,92.2074,267.9373,0,U,43077,999,44734,.8780545E-5,.44E-6,0
IRIDIUM 153,2017-083J,2026-07-09T04:49:55.386336,14.34217640,.00021067,86.3962,281.2676,94.1217,266.0220,0,U,43078,999,44843,.84223159E-4,.256E-5,0
IRIDIUM 131,2017-083K,2026-07-09T07:20:59.245728,14.34216731,.00020953,86.3985,312.9310,92.4895,267.6541,0,U,43079,999,44727,-.74014718E-4,-.187E-5,0
IRIDIUM 144,2018-030A,2026-07-08T20:36:43.426944,14.34217724,.00023573,86.3960,281.3392,97.4175,262.7289,0,U,43249,999,43324,.281003E-5,.28E-6,0
IRIDIUM 149,2018-030B,2026-07-09T05:08:11.434272,14.34216997,.00022312,86.3960,281.1576,93.7766,266.3685,0,U,43250,999,43331,.24845952E-4,.89E-6,0
IRIDIUM 157,2018-030C,2026-07-09T05:35:35.541600,14.34216377,.00022452,86.3962,281.2032,94.1188,266.0264,0,U,43251,999,43329,.13585905E-4,.58E-6,0
IRIDIUM 140,2018-030D,2026-07-09T16:05:47.431104,14.34216087,.0002202,86.3960,281.0330,95.6195,264.5251,0,U,43252,999,43341,.30102E-4,.104E-5,0
IRIDIUM 145,2018-030E,2026-07-09T15:47:31.142976,14.34216167,.0002411,86.3956,281.0105,102.5837,257.5629,0,U,43253,999,43334,.25662E-4,.92E-6,0
IRIDIUM 146,2018-030F,2026-07-09T18:41:03.302016,14.34217480,.000236,86.3961,280.9722,97.9146,262.2318,0,U,43254,999,43337,.59696E-4,.187E-5,0
IRIDIUM 148,2018-030G,2026-07-09T16:14:55.608000,14.34216500,.0002332,86.3963,281.0581,94.4283,265.7179,0,U,43255,999,43339,.28531E-4,.1E-5,0
IRIDIUM 142,2018-030H,2026-07-09T15:29:15.482112,14.34217370,.0002383,86.3959,280.9595,98.6640,261.4826,0,U,43256,999,43335,.56511E-4,.178E-5,0
IRIDIUM 150,2018-030J,2026-07-09T04:40:47.021952,14.34219442,.00022454,86.3963,281.2649,96.3816,263.7636,0,U,43257,999,43331,.30300693E-4,.105E-5,0
IRIDIUM 143,2018-030K,2026-07-09T15:56:39.378624,14.34217361,.0002309,86.3964,281.1619,98.1561,261.9897,0,U,43258,999,43331,.72745E-4,.224E-5,0
IRIDIUM 161,2018-047C,2026-07-09T05:11:18.598272,14.43284336,.00023534,86.4469,79.2595,78.9993,281.1472,0,U,43478,999,42831,.55733535E-4,.208E-5,0
IRIDIUM 152,2018-047D,2026-07-09T05:14:34.891296,14.34218640,.00021729,86.3944,79.1199,82.5193,277.6250,0,U,43479,999,42564,.50953102E-4,.162E-5,0
IRIDIUM 147,2018-047E,2026-07-09T05:23:42.023616,14.34216440,.00022793,86.3944,79.1227,89.2340,270.9117,0,U,43480,999,42564,.55548514E-4,.175E-5,0
IRIDIUM 110,2018-047F,2026-07-09T03:52:22.301472,14.34217012,.00022448,86.3949,79.2419,77.2667,282.8780,0,U,43481,999,42562,.52174495E-4,.166E-5,0
IRIDIUM 162,2018-047G,2026-07-09T03:22:24.277728,14.43283103,.00021979,86.4468,79.1820,84.2172,275.9279,0,U,43482,999,42829,.56716452E-4,.211E-5,0
IRIDIUM 160,2018-061A,2026-07-09T00:53:54.460896,14.34217436,.000226,86.3938,47.6585,86.3062,273.8392,0,U,43569,999,41650,.33046987E-4,.112E-5,0
IRIDIUM 166,2018-061B,2026-07-09T13:13:42.366720,14.34217868,.0002257,86.3942,47.3936,89.7499,270.3955,0,U,43570,999,41660,.34358E-6,.21E-6,0
IRIDIUM 158,2018-061C,2026-07-09T00:44:46.384224,14.34216853,.00020103,86.3938,47.6212,85.3514,274.7911,0,U,43571,999,41649,-.64200414E-4,-.16E-5,0
IRIDIUM 165,2018-061D,2026-07-09T13:04:34.348800,14.34216760,.0002257,86.3944,47.4530,90.6727,269.4727,0,U,43572,999,41659,.26099E-4,.93E-6,0
IRIDIUM 155,2018-061E,2026-07-09T00:26:30.291360,14.34216550,.00020147,86.3936,47.5411,87.6769,272.4657,0,U,43573,999,41648,-.55750439E-4,-.136E-5,0
